[{"OBJECT_NAME":"MICROCARB","OBJECT_ID":"2025-156A","EPOCH":"2026-03-09T17:15:52.249536","MEAN_MOTION":14.72202721,"ECCENTRICITY":0.00154873,"INCLINATION":97.9887,"RA_OF_ASC_NODE":147.6209,"ARG_OF_PERICENTER":226.9803,"MEAN_ANOMALY":133.0108,"EPHEMERIS_TYPE":0,"CLASSIFICATION_TYPE":"U","NORAD_CAT_ID":64899,"ELEMENT_SET_NO":999,"REV_AT_EPOCH":3333,"BSTAR":0.00014465624,"MEAN_MOTION_DOT":8.64e-6,"MEAN_MOTION_DDOT":0},{"OBJECT_NAME":"FENGYUN 1C DEB","OBJECT_ID":"1999-025ANK","EPOCH":"2026-03-09T17:30:19.114560","MEAN_MOTION":14.72162436,"ECCENTRICITY":0.00232259,"INCLINATION":99.3408,"RA_OF_ASC_NODE":2.0432,"ARG_OF_PERICENTER":343.005,"MEAN_ANOMALY":17.0373,"EPHEMERIS_TYPE":0,"CLASSIFICATION_TYPE":"U","NORAD_CAT_ID":30628,"ELEMENT_SET_NO":999,"REV_AT_EPOCH":99749,"BSTAR":0.002965931,"MEAN_MOTION_DOT":0.00018751,"MEAN_MOTION_DDOT":0}]
